{
  "norad_id": 61689,
  "name": "STARLINK-11312 [DTC]",
  "history": [
    {
      "epoch": "2026-03-28T19:28:15.677184",
      "apogee_km": 360.67151163731523,
      "perigee_km": 358.87653214108377,
      "latitude_deg": 39.71387437930482,
      "longitude_deg": 66.78408576012589,
      "semi_major_axis_km": 6737.911021889199,
      "eccentricity": 0.0001332,
      "inclination_deg": 53.16,
      "raan_deg": 292.2351,
      "arg_perigee_deg": 69.2421,
      "mean_anomaly_deg": 290.874,
      "mean_motion_rev_day": 15.69693481
    },
    {
      "epoch": "2026-03-29T00:03:17.278848",
      "apogee_km": 360.369867856205,
      "perigee_km": 359.06676663784947,
      "latitude_deg": -36.541845343523164,
      "longitude_deg": 85.11919871973805,
      "semi_major_axis_km": 6737.8553172470265,
      "eccentricity": 9.67e-05,
      "inclination_deg": 53.1601,
      "raan_deg": 291.2938,
      "arg_perigee_deg": 88.6472,
      "mean_anomaly_deg": 271.4656,
      "mean_motion_rev_day": 15.69712947
    }
  ]
}